[{"OBJECT_NAME":"OBJECT J","OBJECT_ID":"2023-085J","EPOCH":"2026-03-09T22:47:59.920512","MEAN_MOTION":15.31507187,"ECCENTRICITY":0.00067028,"INCLINATION":97.4828,"RA_OF_ASC_NODE":180.1819,"ARG_OF_PERICENTER":41.7877,"MEAN_ANOMALY":318.3875,"EPHEMERIS_TYPE":0,"CLASSIFICATION_TYPE":"U","NORAD_CAT_ID":57012,"ELEMENT_SET_NO":999,"REV_AT_EPOCH":15156,"BSTAR":0.00064525349,"MEAN_MOTION_DOT":0.00019595,"MEAN_MOTION_DDOT":0},{"OBJECT_NAME":"STARLINK-32855","OBJECT_ID":"2025-018H","EPOCH":"2026-03-09T21:26:08.431296","MEAN_MOTION":15.30217575,"ECCENTRICITY":0.00012194,"INCLINATION":53.157,"RA_OF_ASC_NODE":308.3608,"ARG_OF_PERICENTER":121.6526,"MEAN_ANOMALY":238.4594,"EPHEMERIS_TYPE":0,"CLASSIFICATION_TYPE":"U","NORAD_CAT_ID":62813,"ELEMENT_SET_NO":999,"REV_AT_EPOCH":6320,"BSTAR":0.001039073,"MEAN_MOTION_DOT":0.00030559,"MEAN_MOTION_DDOT":0}]
